start=new Date('2022-07-30T00:00:00.000Z').valueOf();
sats=[{"NORAD_CAT_ID":"45414","OBJECT_TYPE":"PAYLOAD","SEMIMAJOR_AXIS":"6925.358","CLASSIFICATION_TYPE":"U","INCLINATION":"53.0564","COUNTRY_CODE":"US","FILE":"3524848","PERIAPSIS":"546.235","ECCENTRICITY":"0.00014270","REV_AT_EPOCH":"13105","MEAN_ELEMENT_THEORY":"SGP4","SITE":"AFETR","TIME_SYSTEM":"UTC","MEAN_ANOMALY":"291.7609","MEAN_MOTION_DOT":"-0.00001062","BSTAR":"-0.00005241600000","MEAN_MOTION":"15.06396979","MEAN_MOTION_DDOT":"0.0000000000000","GP_ID":"209130096","LAUNCH_DATE":"2020-03-18","TLE_LINE1":"1 45414U 20019BG  22210.75147494 -.00001062  00000-0 -52416-4 0  9991","PERIOD":"95.592","ARG_OF_PERICENTER":"68.3532","APOAPSIS":"548.211","OBJECT_ID":"2020-019BG","RA_OF_ASC_NODE":"297.5595","EPHEMERIS_TYPE":"0","CENTER_NAME":"EARTH","TLE_LINE2":"2 45414  53.0564 297.5595 0001427  68.3532 291.7609 15.06396979131055","REF_FRAME":"TEME","DECAY_DATE":null,"ELEMENT_SET_NO":"999","OBJECT_NAME":"STARLINK-1309","RCS_SIZE":"LARGE","EPOCH":"2022-07-29T18:02:07.434816"},{"OBJECT_ID":"2020-019BH","ARG_OF_PERICENTER":"93.5224","APOAPSIS":"548.073","TLE_LINE1":"1 45415U 20019BH  22210.71093540  .00000986  00000-0  85075-4 0  9999","PERIOD":"95.592","GP_ID":"209130345","LAUNCH_DATE":"2020-03-18","MEAN_MOTION_DDOT":"0.0000000000000","MEAN_MOTION":"15.06407329","BSTAR":"0.00008507500000","MEAN_MOTION_DOT":"0.00000986","TIME_SYSTEM":"UTC","MEAN_ANOMALY":"266.5911","MEAN_ELEMENT_THEORY":"SGP4","SITE":"AFETR","REV_AT_EPOCH":"13108","ECCENTRICITY":"0.00012740","FILE":"3524848","PERIAPSIS":"546.309","COUNTRY_CODE":"US","CLASSIFICATION_TYPE":"U","INCLINATION":"53.0554","OBJECT_TYPE":"PAYLOAD","NORAD_CAT_ID":"45415","SEMIMAJOR_AXIS":"6925.326","EPOCH":"2022-07-29T17:03:44.818560","RCS_SIZE":"LARGE","OBJECT_NAME":"STARLINK-1316","ELEMENT_SET_NO":"999","DECAY_DATE":null,"REF_FRAME":"TEME","TLE_LINE2":"2 45415  53.0554 297.7512 0001274  93.5224 266.5911 15.06407329131085","CENTER_NAME":"EARTH","EPHEMERIS_TYPE":"0","RA_OF_ASC_NODE":"297.7512"},{"OBJECT_ID":"2020-019BJ","PERIOD":"95.592","TLE_LINE1":"1 45416U 20019BJ  22210.61140511 -.00002504  00000-0 -14929-3 0  9999","ARG_OF_PERICENTER":"83.7435","APOAPSIS":"548.284","GP_ID":"209131094","LAUNCH_DATE":"2020-03-18","MEAN_MOTION":"15.06399694","MEAN_MOTION_DDOT":"0.0000000000000","MEAN_ANOMALY":"276.3730","TIME_SYSTEM":"UTC","BSTAR":"-0.00014929000000","MEAN_MOTION_DOT":"-0.00002504","REV_AT_EPOCH":"13105","SITE":"AFETR","MEAN_ELEMENT_THEORY":"SGP4","COUNTRY_CODE":"US","ECCENTRICITY":"0.00015440","FILE":"3524848","PERIAPSIS":"546.145","SEMIMAJOR_AXIS":"6925.349","OBJECT_TYPE":"PAYLOAD","NORAD_CAT_ID":"45416","INCLINATION":"53.0542","CLASSIFICATION_TYPE":"U","RCS_SIZE":"LARGE","EPOCH":"2022-07-29T14:40:25.401504","OBJECT_NAME":"STARLINK-1318","ELEMENT_SET_NO":"999","DECAY_DATE":null,"REF_FRAME":"TEME","TLE_LINE2":"2 45416  53.0542 298.1981 0001544  83.7435 276.3730 15.06399694131053","CENTER_NAME":"EARTH","RA_OF_ASC_NODE":"298.1981","EPHEMERIS_TYPE":"0"},{"TLE_LINE1":"1 45417U 20019BK  22210.61601344 -.00002012  00000-0 -11629-3 0  9994","PERIOD":"95.593","APOAPSIS":"548.136","ARG_OF_PERICENTER":"94.6319","OBJECT_ID":"2020-019BK","MEAN_MOTION":"15.06387469","MEAN_MOTION_DDOT":"0.0000000000000","LAUNCH_DATE":"2020-03-18","GP_ID":"209130830","REV_AT_EPOCH":"13090","MEAN_ELEMENT_THEORY":"SGP4","SITE":"AFETR","TIME_SYSTEM":"UTC","MEAN_ANOMALY":"265.4816","BSTAR":"-0.00011629000000","MEAN_MOTION_DOT":"-0.00002012","OBJECT_TYPE":"PAYLOAD","SEMIMAJOR_AXIS":"6925.387","NORAD_CAT_ID":"45417","CLASSIFICATION_TYPE":"U","INCLINATION":"53.0539","COUNTRY_CODE":"US","PERIAPSIS":"546.368","FILE":"3524848","ECCENTRICITY":"0.00012760","OBJECT_NAME":"STARLINK-1286","RCS_SIZE":"LARGE","EPOCH":"2022-07-29T14:47:03.561216","DECAY_DATE":null,"ELEMENT_SET_NO":"999","TLE_LINE2":"2 45417  53.0539 328.1590 0001276  94.6319 265.4816 15.06387469130908","REF_FRAME":"TEME","RA_OF_ASC_NODE":"328.1590","EPHEMERIS_TYPE":"0","CENTER_NAME":"EARTH"},{"OBJECT_NAME":"STARLINK-1299","EPOCH":"2022-07-29T18:14:32.971776","RCS_SIZE":"LARGE","DECAY_DATE":null,"ELEMENT_SET_NO":"999","TLE_LINE2":"2 45418  53.0003 348.8130 0001633 109.1018 251.0148 15.07056473130323","REF_FRAME":"TEME","EPHEMERIS_TYPE":"0","RA_OF_ASC_NODE":"348.8130","CENTER_NAME":"EARTH","APOAPSIS":"546.333","ARG_OF_PERICENTER":"109.1018","TLE_LINE1":"1 45418U 20019BL  22210.76010384  .00006403  00000-0  44057-3 0  9996","PERIOD":"95.551","OBJECT_ID":"2020-019BL","MEAN_MOTION_DDOT":"0.0000000000000","MEAN_MOTION":"15.07056473","GP_ID":"209129597","LAUNCH_DATE":"2020-03-18","SITE":"AFETR","MEAN_ELEMENT_THEORY":"SGP4","REV_AT_EPOCH":"13032","MEAN_MOTION_DOT":"0.00006403","BSTAR":"0.00044057000000","MEAN_ANOMALY":"251.0148","TIME_SYSTEM":"UTC","INCLINATION":"53.0003","CLASSIFICATION_TYPE":"U","OBJECT_TYPE":"PAYLOAD","SEMIMAJOR_AXIS":"6923.337","NORAD_CAT_ID":"45418","FILE":"3524848","ECCENTRICITY":"0.00016330","PERIAPSIS":"544.072","COUNTRY_CODE":"US"},{"NORAD_CAT_ID":"45419","OBJECT_TYPE":"PAYLOAD","SEMIMAJOR_AXIS":"6925.335","CLASSIFICATION_TYPE":"U","INCLINATION":"53.0564","COUNTRY_CODE":"US","ECCENTRICITY":"0.00013390","FILE":"3524848","PERIAPSIS":"546.273","REV_AT_EPOCH":"13067","MEAN_ELEMENT_THEORY":"SGP4","SITE":"AFETR","TIME_SYSTEM":"UTC","MEAN_ANOMALY":"265.2660","BSTAR":"0.00006767800000","MEAN_MOTION_DOT":"0.00000727","MEAN_MOTION":"15.06404313","MEAN_MOTION_DDOT":"0.0000000000000","LAUNCH_DATE":"2020-03-18","GP_ID":"209129847","PERIOD":"95.592","TLE_LINE1":"1 45419U 20019BM  22210.74501391  .00000727  00000-0  67678-4 0  9996","APOAPSIS":"548.128","ARG_OF_PERICENTER":"94.8482","OBJECT_ID":"2020-019BM","RA_OF_ASC_NODE":"327.6018","EPHEMERIS_TYPE":"0","CENTER_NAME":"EARTH","TLE_LINE2":"2 45419  53.0564 327.6018 0001339  94.8482 265.2660 15.06404313130677","REF_FRAME":"TEME","DECAY_DATE":null,"ELEMENT_SET_NO":"999","OBJECT_NAME":"STARLINK-1308","RCS_SIZE":"LARGE","EPOCH":"2022-07-29T17:52:49.201824"},{"OBJECT_NAME":"STARLINK-1329","EPOCH":"2022-07-29T20:18:47.282112","RCS_SIZE":"LARGE","DECAY_DATE":null,"ELEMENT_SET_NO":"999","TLE_LINE2":"2 45531  53.0543 267.1428 0001315  79.2123 280.9013 15.06403140126314","REF_FRAME":"TEME","EPHEMERIS_TYPE":"0","RA_OF_ASC_NODE":"267.1428","CENTER_NAME":"EARTH","ARG_OF_PERICENTER":"79.2123","APOAPSIS":"548.115","TLE_LINE1":"1 45531U 20025A   22210.84638058 -.00000282  00000-0 -21789-7 0  9994","PERIOD":"95.592","OBJECT_ID":"2020-025A","MEAN_MOTION_DDOT":"0.0000000000000","MEAN_MOTION":"15.06403140","GP_ID":"209130108","LAUNCH_DATE":"2020-04-22","MEAN_ELEMENT_THEORY":"SGP4","SITE":"AFETR","REV_AT_EPOCH":"12631","BSTAR":"-0.00000002178900","MEAN_MOTION_DOT":"-0.00000282","TIME_SYSTEM":"UTC","MEAN_ANOMALY":"280.9013","CLASSIFICATION_TYPE":"U","INCLINATION":"53.0543","OBJECT_TYPE":"PAYLOAD","NORAD_CAT_ID":"45531","SEMIMAJOR_AXIS":"6925.339","PERIAPSIS":"546.293","FILE":"3524848","ECCENTRICITY":"0.00013150","COUNTRY_CODE":"US"},{"CENTER_NAME":"EARTH","RA_OF_ASC_NODE":"267.0941","EPHEMERIS_TYPE":"0","REF_FRAME":"TEME","TLE_LINE2":"2 45532  53.0544 267.0941 0001289  77.0462 283.0670 15.06402402126310","ELEMENT_SET_NO":"999","DECAY_DATE":null,"RCS_SIZE":"LARGE","EPOCH":"2022-07-29T20:34:41.824128","OBJECT_NAME":"STARLINK-1338","COUNTRY_CODE":"US","FILE":"3524848","PERIAPSIS":"546.314","ECCENTRICITY":"0.00012890","SEMIMAJOR_AXIS":"6925.341","OBJECT_TYPE":"PAYLOAD","NORAD_CAT_ID":"45532","INCLINATION":"53.0544","CLASSIFICATION_TYPE":"U","MEAN_ANOMALY":"283.0670","TIME_SYSTEM":"UTC","MEAN_MOTION_DOT":"0.00000482","BSTAR":"0.00005122700000","REV_AT_EPOCH":"12631","SITE":"AFETR","MEAN_ELEMENT_THEORY":"SGP4","GP_ID":"209130357","LAUNCH_DATE":"2020-04-22","MEAN_MOTION":"15.06402402","MEAN_MOTION_DDOT":"0.0000000000000","OBJECT_ID":"2020-025B","PERIOD":"95.592","TLE_LINE1":"1 45532U 20025B   22210.85742852  .00000482  00000-0  51227-4 0  9991","ARG_OF_PERICENTER":"77.0462","APOAPSIS":"548.099"},{"CENTER_NAME":"EARTH","RA_OF_ASC_NODE":"204.3285","EPHEMERIS_TYPE":"0","REF_FRAME":"TEME","TLE_LINE2":"2 45533  53.0375 204.3285 0001431 256.7103 103.3751 15.63615150127184","ELEMENT_SET_NO":"999","DECAY_DATE":null,"RCS_SIZE":"LARGE","EPOCH":"2022-07-29T16:52:29.865216","OBJECT_NAME":"STARLINK-1339","COUNTRY_CODE":"US","FILE":"3524848","ECCENTRICITY":"0.00014310","PERIAPSIS":"376.260","NORAD_CAT_ID":"45533","OBJECT_TYPE":"PAYLOAD","SEMIMAJOR_AXIS":"6755.362","INCLINATION":"53.0375","CLASSIFICATION_TYPE":"U","MEAN_ANOMALY":"103.3751","TIME_SYSTEM":"UTC","MEAN_MOTION_DOT":"0.00127404","BSTAR":"0.00132990000000","REV_AT_EPOCH":"12718","SITE":"AFETR","MEAN_ELEMENT_THEORY":"SGP4","LAUNCH_DATE":"2020-04-22","GP_ID":"209131106","MEAN_MOTION":"15.63615150","MEAN_MOTION_DDOT":"0.0000000000000","OBJECT_ID":"2020-025C","TLE_LINE1":"1 45533U 20025C   22210.70312344  .00127404  00000-0  13299-2 0  9994","PERIOD":"92.094","ARG_OF_PERICENTER":"256.7103","APOAPSIS":"378.193"},{"MEAN_MOTION":"15.06394375","MEAN_MOTION_DDOT":"0.0000000000000","LAUNCH_DATE":"2020-04-22","GP_ID":"209101153","TLE_LINE1":"1 45534U 20025D   22210.47042588  .00000073  00000-0  23783-4 0  9992","PERIOD":"95.592","ARG_OF_PERICENTER":"56.7067","APOAPSIS":"548.254","OBJECT_ID":"2020-025D","SEMIMAJOR_AXIS":"6925.366","OBJECT_TYPE":"PAYLOAD","NORAD_CAT_ID":"45534","INCLINATION":"53.0546","CLASSIFICATION_TYPE":"U","COUNTRY_CODE":"US","FILE":"3524608","PERIAPSIS":"546.208","ECCENTRICITY":"0.00014770","REV_AT_EPOCH":"12625","SITE":"AFETR","MEAN_ELEMENT_THEORY":"SGP4","MEAN_ANOMALY":"303.4063","TIME_SYSTEM":"UTC","BSTAR":"0.00002378300000","MEAN_MOTION_DOT":"0.00000073","DECAY_DATE":null,"ELEMENT_SET_NO":"999","OBJECT_NAME":"STARLINK-1341","RCS_SIZE":"LARGE","EPOCH":"2022-07-29T11:17:24.796032","RA_OF_ASC_NODE":"268.8217","EPHEMERIS_TYPE":"0","CENTER_NAME":"EARTH","TLE_LINE2":"2 45534  53.0546 268.8217 0001477  56.7067 303.4063 15.06394375126258","REF_FRAME":"TEME"}];
